MALLIGYONG-1            
1 58400U 23179A   24088.91065761  .00007545  00000+0  33649-3 0  9994
2 58400  97.4143 336.9605 0009720 173.3778 186.7588 15.21646145 19517
